{
  "type": "FeatureCollection",
  "features": [
    {
      "type": "Feature",
      "properties": {
        "norad_id": 38867,
        "name": "INTELSAT 23 (IS-23)",
        "group": "intelsat",
        "lat": -0.012842247125028662,
        "lon": -100.45732327141664,
        "alt_km": 35783.90788891937,
        "timestamp": "2025-12-26T14:28:47.357031+00:00",
        "meta_object_name": "INTELSAT 23 (IS-23)",
        "meta_object_id": "2012-057A",
        "meta_epoch": "2025-12-26T05:55:59.375136",
        "meta_mean_motion": 1.00273273,
        "meta_eccentricity": 6.079e-05,
        "meta_inclination": 0.0176,
        "meta_ra_of_asc_node": 77.9722,
        "meta_arg_of_pericenter": 227.1538,
        "meta_mean_anomaly": 185.876,
        "meta_ephemeris_type": 0,
        "meta_classification_type": "U",
        "meta_norad_cat_id": 38867,
        "meta_element_set_no": 999,
        "meta_rev_at_epoch": 4822,
        "meta_bstar": 0,
        "meta_mean_motion_dot": -2.63e-06,
        "meta_mean_motion_ddot": 0,
        "tle_line1": "1 38867U 12057A   25360.24721499 -.00000263  00000+0  00000+0 0  9991",
        "tle_line2": "2 38867   0.0176  77.9722 0000607 227.1538 185.8760  1.00273273 48229"
      },
      "geometry": {
        "type": "Point",
        "coordinates": [
          -100.45732327141664,
          -0.012842247125028662
        ]
      }
    },
    {
      "type": "Feature",
      "properties": {
        "norad_id": 39360,
        "name": "FM-6",
        "group": "intelsat",
        "lat": 0.01598746216350571,
        "lon": -163.64044829119044,
        "alt_km": 35774.60220441266,
        "timestamp": "2025-12-26T14:28:47.357043+00:00",
        "meta_object_name": "FM-6",
        "meta_object_id": "2013-058A",
        "meta_epoch": "2025-12-25T23:15:38.712384",
        "meta_mean_motion": 1.00267622,
        "meta_eccentricity": 0.00031338,
        "meta_inclination": 0.0194,
        "meta_ra_of_asc_node": 74.6696,
        "meta_arg_of_pericenter": 105.3027,
        "meta_mean_anomaly": 147.4825,
        "meta_ephemeris_type": 0,
        "meta_classification_type": "U",
        "meta_norad_cat_id": 39360,
        "meta_element_set_no": 999,
        "meta_rev_at_epoch": 4433,
        "meta_bstar": 0,
        "meta_mean_motion_dot": 5e-08,
        "meta_mean_motion_ddot": 0,
        "tle_line1": "1 39360U 13058A   25359.96919806  .00000005  00000+0  00000+0 0  9993",
        "tle_line2": "2 39360   0.0194  74.6696 0003133 105.3027 147.4825  1.00267622 44334"
      },
      "geometry": {
        "type": "Point",
        "coordinates": [
          -163.64044829119044,
          0.01598746216350571
        ]
      }
    },
    {
      "type": "Feature",
      "properties": {
        "norad_id": 40271,
        "name": "INTELSAT 30 (IS-30)",
        "group": "intelsat",
        "lat": -0.00717465114298885,
        "lon": -142.51207654280591,
        "alt_km": 35790.43491811026,
        "timestamp": "2025-12-26T14:28:47.357055+00:00",
        "meta_object_name": "INTELSAT 30 (IS-30)",
        "meta_object_id": "2014-062A",
        "meta_epoch": "2025-12-25T03:32:01.529088",
        "meta_mean_motion": 1.00271148,
        "meta_eccentricity": 0.00014468,
        "meta_inclination": 0.0153,
        "meta_ra_of_asc_node": 34.2697,
        "meta_arg_of_pericenter": 50.7902,
        "meta_mean_anomaly": 326.8001,
        "meta_ephemeris_type": 0,
        "meta_classification_type": "U",
        "meta_norad_cat_id": 40271,
        "meta_element_set_no": 999,
        "meta_rev_at_epoch": 504,
        "meta_bstar": 0,
        "meta_mean_motion_dot": -1.3e-06,
        "meta_mean_motion_ddot": 0,
        "tle_line1": "1 40271U 14062A   25359.14723992 -.00000130  00000+0  00000+0 0  9991",
        "tle_line2": "2 40271   0.0153  34.2697 0001446  50.7902 326.8001  1.00271148  5047"
      },
      "geometry": {
        "type": "Point",
        "coordinates": [
          -142.51207654280591,
          -0.00717465114298885
        ]
      }
    },
    {
      "type": "Feature",
      "properties": {
        "norad_id": 40333,
        "name": "DIRECTV 14",
        "group": "intelsat",
        "lat": -0.022602309410446247,
        "lon": -146.6154866259224,
        "alt_km": 35782.35874274759,
        "timestamp": "2025-12-26T14:28:47.357066+00:00",
        "meta_object_name": "DIRECTV 14",
        "meta_object_id": "2014-078B",
        "meta_epoch": "2025-12-24T12:37:43.773312",
        "meta_mean_motion": 1.00279829,
        "meta_eccentricity": 3.885e-05,
        "meta_inclination": 0.0184,
        "meta_ra_of_asc_node": 340.4706,
        "meta_arg_of_pericenter": 254.7884,
        "meta_mean_anomaly": 308.2619,
        "meta_ephemeris_type": 0,
        "meta_classification_type": "U",
        "meta_norad_cat_id": 40333,
        "meta_element_set_no": 999,
        "meta_rev_at_epoch": 4029,
        "meta_bstar": 0,
        "meta_mean_motion_dot": -1.06e-06,
        "meta_mean_motion_ddot": 0,
        "tle_line1": "1 40333U 14078B   25358.52620108 -.00000106  00000+0  00000+0 0  9996",
        "tle_line2": "2 40333   0.0184 340.4706 0000388 254.7884 308.2619  1.00279829 40291"
      },
      "geometry": {
        "type": "Point",
        "coordinates": [
          -146.6154866259224,
          -0.022602309410446247
        ]
      }
    },
    {
      "type": "Feature",
      "properties": {
        "norad_id": 40663,
        "name": "DIRECTV 15",
        "group": "intelsat",
        "lat": -0.005858791164475612,
        "lon": -150.37175658896825,
        "alt_km": 35786.08539835731,
        "timestamp": "2025-12-26T14:28:47.357079+00:00",
        "meta_object_name": "DIRECTV 15",
        "meta_object_id": "2015-026A",
        "meta_epoch": "2025-12-25T16:00:02.811744",
        "meta_mean_motion": 1.00267803,
        "meta_eccentricity": 3.367e-05,
        "meta_inclination": 0.018,
        "meta_ra_of_asc_node": 26.1792,
        "meta_arg_of_pericenter": 146.2748,
        "meta_mean_anomaly": 59.0835,
        "meta_ephemeris_type": 0,
        "meta_classification_type": "U",
        "meta_norad_cat_id": 40663,
        "meta_element_set_no": 999,
        "meta_rev_at_epoch": 3872,
        "meta_bstar": 0,
        "meta_mean_motion_dot": -8e-07,
        "meta_mean_motion_ddot": 0,
        "tle_line1": "1 40663U 15026A   25359.66669921 -.00000080  00000+0  00000+0 0  9999",
        "tle_line2": "2 40663   0.0180  26.1792 0000336 146.2748  59.0835  1.00267803 38728"
      },
      "geometry": {
        "type": "Point",
        "coordinates": [
          -150.37175658896825,
          -0.005858791164475612
        ]
      }
    },
    {
      "type": "Feature",
      "properties": {
        "norad_id": 40664,
        "name": "SKY MEXICO-1",
        "group": "intelsat",
        "lat": -0.023510135509867705,
        "lon": -126.2686876524576,
        "alt_km": 35780.78333418425,
        "timestamp": "2025-12-26T14:28:47.357090+00:00",
        "meta_object_name": "SKY MEXICO-1",
        "meta_object_id": "2015-026B",
        "meta_epoch": "2025-12-25T22:57:48.561984",
        "meta_mean_motion": 1.00269655,
        "meta_eccentricity": 0.00025987,
        "meta_inclination": 0.0153,
        "meta_ra_of_asc_node": 12.1574,
        "meta_arg_of_pericenter": 278.8916,
        "meta_mean_anomaly": 69.3374,
        "meta_ephemeris_type": 0,
        "meta_classification_type": "U",
        "meta_norad_cat_id": 40664,
        "meta_element_set_no": 999,
        "meta_rev_at_epoch": 3871,
        "meta_bstar": 0,
        "meta_mean_motion_dot": -2.13e-06,
        "meta_mean_motion_ddot": 0,
        "tle_line1": "1 40664U 15026B   25359.95681206 -.00000213  00000+0  00000+0 0  9990",
        "tle_line2": "2 40664   0.0153  12.1574 0002598 278.8916  69.3374  1.00269655 38711"
      },
      "geometry": {
        "type": "Point",
        "coordinates": [
          -126.2686876524576,
          -0.023510135509867705
        ]
      }
    },
    {
      "type": "Feature",
      "properties": {
        "norad_id": 40874,
        "name": "INTELSAT 34 (IS-34)",
        "group": "intelsat",
        "lat": -0.030920393932869553,
        "lon": -102.96814194743892,
        "alt_km": 35786.91980395761,
        "timestamp": "2025-12-26T14:28:47.357102+00:00",
        "meta_object_name": "INTELSAT 34 (IS-34)",
        "meta_object_id": "2015-039A",
        "meta_epoch": "2025-12-26T01:50:17.564352",
        "meta_mean_motion": 1.00269247,
        "meta_eccentricity": 5.15e-05,
        "meta_inclination": 0.0147,
        "meta_ra_of_asc_node": 340.5004,
        "meta_arg_of_pericenter": 185.0401,
        "meta_mean_anomaly": 261.3543,
        "meta_ephemeris_type": 0,
        "meta_classification_type": "U",
        "meta_norad_cat_id": 40874,
        "meta_element_set_no": 999,
        "meta_rev_at_epoch": 3788,
        "meta_bstar": 0,
        "meta_mean_motion_dot": -2.64e-06,
        "meta_mean_motion_ddot": 0,
        "tle_line1": "1 40874U 15039A   25360.07659218 -.00000264  00000+0  00000+0 0  9996",
        "tle_line2": "2 40874   0.0147 340.5004 0000515 185.0401 261.3543  1.00269247 37884"
      },
      "geometry": {
        "type": "Point",
        "coordinates": [
          -102.96814194743892,
          -0.030920393932869553
        ]
      }
    }
  ]
}